<?xml version="1.0" encoding="UTF-8"?>
<ndm xmlns:xsi="http://www.w3.org/2001/XMLSchema-instance" xsi:noNamespaceSchemaLocation="https://sanaregistry.org/r/ndmxml_unqualified/ndmxml-2.0.0-master-2.0.xsd">
<omm id="CCSDS_OMM_VERS" version="2.0">
<header><CREATION_DATE/><ORIGINATOR/></header><body><segment><metadata><OBJECT_NAME>ORBCOMM FM26</OBJECT_NAME><OBJECT_ID>1998-053F</OBJECT_ID><CENTER_NAME>EARTH</CENTER_NAME><REF_FRAME>TEME</REF_FRAME><TIME_SYSTEM>UTC</TIME_SYSTEM><MEAN_ELEMENT_THEORY>SGP4</MEAN_ELEMENT_THEORY></metadata><data><meanElements><EPOCH>2024-05-21T00:53:17.148192</EPOCH><MEAN_MOTION>14.35154330</MEAN_MOTION><ECCENTRICITY>.0005844</ECCENTRICITY><INCLINATION>45.0070</INCLINATION><RA_OF_ASC_NODE>317.4958</RA_OF_ASC_NODE><ARG_OF_PERICENTER>111.0330</ARG_OF_PERICENTER><MEAN_ANOMALY>249.1143</MEAN_ANOMALY></meanElements><tleParameters><EPHEMERIS_TYPE>0</EPHEMERIS_TYPE><CLASSIFICATION_TYPE>U</CLASSIFICATION_TYPE><NORAD_CAT_ID>25480</NORAD_CAT_ID><ELEMENT_SET_NO>999</ELEMENT_SET_NO><REV_AT_EPOCH>34127</REV_AT_EPOCH><BSTAR>.1044E-2</BSTAR><MEAN_MOTION_DOT>.287E-4</MEAN_MOTION_DOT><MEAN_MOTION_DDOT>0</MEAN_MOTION_DDOT></tleParameters></data></segment></body></omm>
<omm id="CCSDS_OMM_VERS" version="2.0">
<header><CREATION_DATE/><ORIGINATOR/></header><body><segment><metadata><OBJECT_NAME>ORBCOMM FM27</OBJECT_NAME><OBJECT_ID>1998-053G</OBJECT_ID><CENTER_NAME>EARTH</CENTER_NAME><REF_FRAME>TEME</REF_FRAME><TIME_SYSTEM>UTC</TIME_SYSTEM><MEAN_ELEMENT_THEORY>SGP4</MEAN_ELEMENT_THEORY></metadata><data><meanElements><EPOCH>2024-05-20T14:19:51.095424</EPOCH><MEAN_MOTION>14.35702271</MEAN_MOTION><ECCENTRICITY>.0000913</ECCENTRICITY><INCLINATION>45.0060</INCLINATION><RA_OF_ASC_NODE>325.6746</RA_OF_ASC_NODE><ARG_OF_PERICENTER>196.1614</ARG_OF_PERICENTER><MEAN_ANOMALY>163.9204</MEAN_ANOMALY></meanElements><tleParameters><EPHEMERIS_TYPE>0</EPHEMERIS_TYPE><CLASSIFICATION_TYPE>U</CLASSIFICATION_TYPE><NORAD_CAT_ID>25481</NORAD_CAT_ID><ELEMENT_SET_NO>999</ELEMENT_SET_NO><REV_AT_EPOCH>34120</REV_AT_EPOCH><BSTAR>.1153E-2</BSTAR><MEAN_MOTION_DOT>.322E-4</MEAN_MOTION_DOT><MEAN_MOTION_DDOT>0</MEAN_MOTION_DDOT></tleParameters></data></segment></body></omm>
<omm id="CCSDS_OMM_VERS" version="2.0">
<header><CREATION_DATE/><ORIGINATOR/></header><body><segment><metadata><OBJECT_NAME>ORBCOMM FM28</OBJECT_NAME><OBJECT_ID>1998-053H</OBJECT_ID><CENTER_NAME>EARTH</CENTER_NAME><REF_FRAME>TEME</REF_FRAME><TIME_SYSTEM>UTC</TIME_SYSTEM><MEAN_ELEMENT_THEORY>SGP4</MEAN_ELEMENT_THEORY></metadata><data><meanElements><EPOCH>2024-05-20T08:55:29.046144</EPOCH><MEAN_MOTION>14.36137443</MEAN_MOTION><ECCENTRICITY>.0004086</ECCENTRICITY><INCLINATION>45.0052</INCLINATION><RA_OF_ASC_NODE>265.1717</RA_OF_ASC_NODE><ARG_OF_PERICENTER>153.2079</ARG_OF_PERICENTER><MEAN_ANOMALY>206.8980</MEAN_ANOMALY></meanElements><tleParameters><EPHEMERIS_TYPE>0</EPHEMERIS_TYPE><CLASSIFICATION_TYPE>U</CLASSIFICATION_TYPE><NORAD_CAT_ID>25482</NORAD_CAT_ID><ELEMENT_SET_NO>999</ELEMENT_SET_NO><REV_AT_EPOCH>34184</REV_AT_EPOCH><BSTAR>.12537E-2</BSTAR><MEAN_MOTION_DOT>.3546E-4</MEAN_MOTION_DOT><MEAN_MOTION_DDOT>0</MEAN_MOTION_DDOT></tleParameters></data></segment></body></omm>
<omm id="CCSDS_OMM_VERS" version="2.0">
<header><CREATION_DATE/><ORIGINATOR/></header><body><segment><metadata><OBJECT_NAME>ORBCOMM FM30</OBJECT_NAME><OBJECT_ID>1999-065A</OBJECT_ID><CENTER_NAME>EARTH</CENTER_NAME><REF_FRAME>TEME</REF_FRAME><TIME_SYSTEM>UTC</TIME_SYSTEM><MEAN_ELEMENT_THEORY>SGP4</MEAN_ELEMENT_THEORY></metadata><data><meanElements><EPOCH>2024-05-20T23:56:55.545504</EPOCH><MEAN_MOTION>14.35286829</MEAN_MOTION><ECCENTRICITY>.0006541</ECCENTRICITY><INCLINATION>45.0297</INCLINATION><RA_OF_ASC_NODE>143.2171</RA_OF_ASC_NODE><ARG_OF_PERICENTER>223.0845</ARG_OF_PERICENTER><MEAN_ANOMALY>136.9491</MEAN_ANOMALY></meanElements><tleParameters><EPHEMERIS_TYPE>0</EPHEMERIS_TYPE><CLASSIFICATION_TYPE>U</CLASSIFICATION_TYPE><NORAD_CAT_ID>25980</NORAD_CAT_ID><ELEMENT_SET_NO>999</ELEMENT_SET_NO><REV_AT_EPOCH>27806</REV_AT_EPOCH><BSTAR>.91944E-3</BSTAR><MEAN_MOTION_DOT>.2517E-4</MEAN_MOTION_DOT><MEAN_MOTION_DDOT>0</MEAN_MOTION_DDOT></tleParameters></data></segment></body></omm>
<omm id="CCSDS_OMM_VERS" version="2.0">
<header><CREATION_DATE/><ORIGINATOR/></header><body><segment><metadata><OBJECT_NAME>ORBCOMM FM31</OBJECT_NAME><OBJECT_ID>1999-065B</OBJECT_ID><CENTER_NAME>EARTH</CENTER_NAME><REF_FRAME>TEME</REF_FRAME><TIME_SYSTEM>UTC</TIME_SYSTEM><MEAN_ELEMENT_THEORY>SGP4</MEAN_ELEMENT_THEORY></metadata><data><meanElements><EPOCH>2024-05-21T09:08:42.772704</EPOCH><MEAN_MOTION>14.35286993</MEAN_MOTION><ECCENTRICITY>.0004586</ECCENTRICITY><INCLINATION>45.0210</INCLINATION><RA_OF_ASC_NODE>135.0931</RA_OF_ASC_NODE><ARG_OF_PERICENTER>254.3698</ARG_OF_PERICENTER><MEAN_ANOMALY>105.6644</MEAN_ANOMALY></meanElements><tleParameters><EPHEMERIS_TYPE>0</EPHEMERIS_TYPE><CLASSIFICATION_TYPE>U</CLASSIFICATION_TYPE><NORAD_CAT_ID>25981</NORAD_CAT_ID><ELEMENT_SET_NO>999</ELEMENT_SET_NO><REV_AT_EPOCH>27767</REV_AT_EPOCH><BSTAR>.82833E-3</BSTAR><MEAN_MOTION_DOT>.2254E-4</MEAN_MOTION_DOT><MEAN_MOTION_DDOT>0</MEAN_MOTION_DDOT></tleParameters></data></segment></body></omm>
<omm id="CCSDS_OMM_VERS" version="2.0">
<header><CREATION_DATE/><ORIGINATOR/></header><body><segment><metadata><OBJECT_NAME>ORBCOMM FM32</OBJECT_NAME><OBJECT_ID>1999-065C</OBJECT_ID><CENTER_NAME>EARTH</CENTER_NAME><REF_FRAME>TEME</REF_FRAME><TIME_SYSTEM>UTC</TIME_SYSTEM><MEAN_ELEMENT_THEORY>SGP4</MEAN_ELEMENT_THEORY></metadata><data><meanElements><EPOCH>2024-05-20T22:51:16.980768</EPOCH><MEAN_MOTION>14.34286732</MEAN_MOTION><ECCENTRICITY>.0006946</ECCENTRICITY><INCLINATION>45.0137</INCLINATION><RA_OF_ASC_NODE>150.9981</RA_OF_ASC_NODE><ARG_OF_PERICENTER>245.8052</ARG_OF_PERICENTER><MEAN_ANOMALY>114.2069</MEAN_ANOMALY></meanElements><tleParameters><EPHEMERIS_TYPE>0</EPHEMERIS_TYPE><CLASSIFICATION_TYPE>U</CLASSIFICATION_TYPE><NORAD_CAT_ID>25982</NORAD_CAT_ID><ELEMENT_SET_NO>999</ELEMENT_SET_NO><REV_AT_EPOCH>27824</REV_AT_EPOCH><BSTAR>.76305E-3</BSTAR><MEAN_MOTION_DOT>.2022E-4</MEAN_MOTION_DOT><MEAN_MOTION_DDOT>0</MEAN_MOTION_DDOT></tleParameters></data></segment></body></omm>

</ndm>
