ORBCOMM FM26            
1 25480U 98053F   24142.03700403  .00002870  00000+0  10440-2 0  9991
2 25480  45.0070 317.4958 0005844 111.0330 249.1143 14.35154330341274
ORBCOMM FM27            
1 25481U 98053G   24141.59711916  .00003220  00000+0  11530-2 0  9994
2 25481  45.0060 325.6746 0000913 196.1614 163.9204 14.35702271341208
ORBCOMM FM28            
1 25482U 98053H   24141.37186396  .00003546  00000+0  12537-2 0  9998
2 25482  45.0052 265.1717 0004086 153.2079 206.8980 14.36137443341842
ORBCOMM FM30            
1 25980U 99065A   24141.99786511  .00002517  00000+0  91944-3 0  9995
2 25980  45.0297 143.2171 0006541 223.0845 136.9491 14.35286829278066
ORBCOMM FM31            
1 25981U 99065B   24142.38105061  .00002254  00000+0  82833-3 0  9990
2 25981  45.0210 135.0931 0004586 254.3698 105.6644 14.35286993277676
ORBCOMM FM32            
1 25982U 99065C   24141.95227987  .00002022  00000+0  76305-3 0  9995
2 25982  45.0137 150.9981 0006946 245.8052 114.2069 14.34286732278248
